{"epoch":1784762836,"count":18316,"objects":[{"id":"22490","name":"SCD 1","type":"PAYLOAD","l1":"1 22490U 93009B   26203.56919307  .00000359  00000-0  47096-4 0  9998","l2":"2 22490  24.9709 349.1117 0041946 152.2192 281.3059 14.46130748766243"},{"id":"25397","name":"TECHSAT 1B","type":"PAYLOAD","l1":"1 25397U 98043D   26203.46678159  .00000036  00000-0  35822-4 0  9992","l2":"2 25397  99.0091 197.1189 0002327 103.4335 256.7103 14.24434333456353"},{"id":"25504","name":"SCD 2","type":"PAYLOAD","l1":"1 25504U 98060A   26203.36795253  .00000313  00000-0  36489-4 0  9993","l2":"2 25504  24.9935 215.2005 0016928 134.2465 248.7662 14.45536331465427"},{"id":"25757","name":"TUBSAT","type":"PAYLOAD","l1":"1 25757U 99029B   26203.42737873  .00000060  00000-0  26630-4 0  9996","l2":"2 25757  98.6717 200.0946 0013128 240.8501 119.1380 14.52434373438365"},{"id":"25994","name":"TERRA","type":"PAYLOAD","l1":"1 25994U 99068A   26203.57942042  .00000260  00000-0  61837-4 0  9994","l2":"2 25994  97.9436 251.7188 0003642 108.3723  57.1543 14.61127651414772"},{"id":"27004","name":"MAROC TUBSAT","type":"PAYLOAD","l1":"1 27004U 01056D   26203.48074487 -.00000019  00000-0  31035-4 0  9997","l2":"2 27004  99.8104  21.0089 0020478  54.0994 330.8625 13.70263745231021"},{"id":"27424","name":"AQUA","type":"PAYLOAD","l1":"1 27424U 02022A   26203.57078656  .00000547  00000-0  11871-3 0  9999","l2":"2 27424  98.4302 173.5661 0001348 102.3374 320.9031 14.62135962288445"},{"id":"28220","name":"TANSUO 1","type":"PAYLOAD","l1":"1 28220U 04012A   26203.20802954  .00014036  00000-0  42120-3 0  9990","l2":"2 28220  97.8672 283.5717 0004396 242.7829 117.2965 15.34574452216464"},{"id":"28376","name":"AURA","type":"PAYLOAD","l1":"1 28376U 04026A   26203.52213835  .00000547  00000-0  12040-3 0  9996","l2":"2 28376  98.3435 160.2730 0001426  93.9422 266.1941 14.61375199171375"},{"id":"28649","name":"CARTOSAT-1","type":"PAYLOAD","l1":"1 28649U 05017A   26203.51055906  .00000868  00000-0  92762-4 0  9998","l2":"2 28649  97.5307 224.9733 0000951  58.4804 301.6508 14.91130144149089"},{"id":"28893","name":"SINAH 1","type":"PAYLOAD","l1":"1 28893U 05043D   26203.59033316  .00000247  00000-0  56366-4 0  9998","l2":"2 28893  98.2902 338.1291 0014908 160.7863 199.3904 14.64178963105709"},{"id":"29228","name":"RESURS DK-1","type":"PAYLOAD","l1":"1 29228U 06021A   26203.33295939  .00001431  00000-0  86164-4 0  9996","l2":"2 29228  69.9299 248.5646 0007524 263.4935  96.5374 15.13337369107894"},{"id":"29268","name":"KOMPSAT 2","type":"PAYLOAD","l1":"1 29268U 06031A   26203.61779553 -.00000073  00000-0 -53095-5 0  9992","l2":"2 29268  97.8325  26.3522 0013605 326.5674 124.3197 14.64677317 66668"},{"id":"29709","name":"LAPAN-TUBSAT","type":"PAYLOAD","l1":"1 29709U 07001A   26203.60640986  .00000029  00000-0  99077-5 0  9995","l2":"2 29709  98.1363 203.6321 0013588  72.3643 287.9054 14.85979262 56410"},{"id":"31113","name":"HAIYANG 1B","type":"PAYLOAD","l1":"1 31113U 07010A   26202.68528257  .00000071  00000-0  42646-4 0  9996","l2":"2 31113  98.3520 183.1967 0014827  98.2130 262.0736 14.31034509  5571"},{"id":"31598","name":"SKYMED 1","type":"PAYLOAD","l1":"1 31598U 07023A   26203.62364659  .00002472  00000-0  21868-3 0  9995","l2":"2 31598  97.8857  35.7804 0001826  93.6001 266.5429 14.97250045 35093"},{"id":"31698","name":"TERRA SAR X","type":"PAYLOAD","l1":"1 31698U 07026A   26203.49713428  .00000259  00000-0  15523-4 0  9999","l2":"2 31698  97.4457 210.7016 0001797  80.1769 279.9668 15.19149840 58582"},{"id":"32060","name":"WORLDVIEW 1","type":"PAYLOAD","l1":"1 32060U 07041A   26203.54042174  .00006315  00000-0  25884-3 0  9998","l2":"2 32060  97.3902 322.7914 0002241 178.1760 181.9486 15.24616193 48265"},{"id":"32289","name":"YAOGAN 3","type":"PAYLOAD","l1":"1 32289U 07055A   26203.63245459  .00001842  00000-0  19244-3 0  9990","l2":"2 32289  97.8145 233.1602 0001467  85.9573 274.1812 14.90899538 11151"},{"id":"32376","name":"SKYMED 2","type":"PAYLOAD","l1":"1 32376U 07059A   26203.60408675  .00000302  00000-0  44477-4 0  9996","l2":"2 32376  97.8898  26.6903 0001480  93.9192 266.2191 14.82154756  7258"},{"id":"32382","name":"RADARSAT 2","type":"PAYLOAD","l1":"1 32382U 07061A   26203.65297926 -.00000001  00000-0  16718-4 0  9990","l2":"2 32382  98.5797 210.0806 0001277  90.6992 269.4337 14.29980876971021"},{"id":"32783","name":"CARTOSAT 2A","type":"PAYLOAD","l1":"1 32783U 08021A   26203.55882304  .00000785  00000-0  11223-3 0  9994","l2":"2 32783  97.7613 251.0569 0011854   4.4495 355.6820 14.79282770984031"},{"id":"33320","name":"HJ-1A","type":"PAYLOAD","l1":"1 33320U 08041A   26203.63222883  .00000609  00000-0  78952-4 0  9991","l2":"2 33320  97.6710 188.1052 0019820  26.6315 333.5913 14.84058689963661"},{"id":"33321","name":"HJ-1B","type":"PAYLOAD","l1":"1 33321U 08041B   26203.61760626  .00000643  00000-0  83686-4 0  9990","l2":"2 33321  97.6546 191.1551 0037946  68.0135 292.5105 14.83374904963663"},{"id":"33331","name":"GEOEYE 1","type":"PAYLOAD","l1":"1 33331U 08042A   26203.53944568  .00000300  00000-0  65471-4 0  9994","l2":"2 33331  98.1321 277.0490 0003454 319.1414  40.9529 14.64653653955323"},{"id":"33396","name":"THEOS","type":"PAYLOAD","l1":"1 33396U 08049A   26203.61944081  .00000266  00000-0  14469-3 0  9992","l2":"2 33396  98.5551 259.7491 0001132  92.8295 267.3012 14.20138552922991"},{"id":"33412","name":"SKYMED 3","type":"PAYLOAD","l1":"1 33412U 08054A   26203.59868314  .00003771  00000-0  25446-3 0  9999","l2":"2 33412  97.8254  62.7543 0016789 141.3865 218.8566 15.07150646962273"},{"id":"33446","name":"YAOGAN 4","type":"PAYLOAD","l1":"1 33446U 08061A   26203.31446922  .00000758  00000-0  99196-4 0  9997","l2":"2 33446  97.9302 136.5669 0013282 321.4364  38.5899 14.83260998950878"},{"id":"33492","name":"GOSAT (IBUKI)","type":"PAYLOAD","l1":"1 33492U 09002A   26203.59308472  .00000449  00000-0  87748-4 0  9998","l2":"2 33492  98.0915 314.2355 0001101  92.8914 267.2417 14.67540019936659"},{"id":"35681","name":"DEIMOS 1","type":"PAYLOAD","l1":"1 35681U 09041A   26203.59165421  .00000143  00000-0  28215-4 0  9993","l2":"2 35681  97.7448 359.2927 0002805  82.8130 277.3399 14.75267377912100"}]}